[{"OBJECT_NAME":"STARLINK-1167","OBJECT_ID":"2020-006AD","EPOCH":"2026-03-09T18:12:34.471584","MEAN_MOTION":15.29348852,"ECCENTRICITY":0.00011008,"INCLINATION":53.1604,"RA_OF_ASC_NODE":257.5319,"ARG_OF_PERICENTER":101.3336,"MEAN_ANOMALY":258.7788,"EPHEMERIS_TYPE":0,"CLASSIFICATION_TYPE":"U","NORAD_CAT_ID":45071,"ELEMENT_SET_NO":999,"REV_AT_EPOCH":33688,"BSTAR":-2.9063101e-5,"MEAN_MOTION_DOT":-1.194e-5,"MEAN_MOTION_DDOT":0},{"OBJECT_NAME":"ION SCV-011","OBJECT_ID":"2023-084AB","EPOCH":"2026-03-09T22:35:16.566144","MEAN_MOTION":15.27752464,"ECCENTRICITY":0.00079323,"INCLINATION":98.1356,"RA_OF_ASC_NODE":247.1056,"ARG_OF_PERICENTER":30.3898,"MEAN_ANOMALY":329.7798,"EPHEMERIS_TYPE":0,"CLASSIFICATION_TYPE":"U","NORAD_CAT_ID":56957,"ELEMENT_SET_NO":999,"REV_AT_EPOCH":15065,"BSTAR":0.0002590454,"MEAN_MOTION_DOT":6.943e-5,"MEAN_MOTION_DDOT":0}]
